[{"OBJECT_NAME":"STARLINK-34422","OBJECT_ID":"2025-129D","EPOCH":"2025-10-27T00:35:23.158176","MEAN_MOTION":14.98337032,"ECCENTRICITY":0.00030956,"INCLINATION":70.0027,"RA_OF_ASC_NODE":51.556,"ARG_OF_PERICENTER":271.134,"MEAN_ANOMALY":88.9464,"EPHEMERIS_TYPE":0,"CLASSIFICATION_TYPE":"U","NORAD_CAT_ID":64415,"ELEMENT_SET_NO":999,"REV_AT_EPOCH":2120,"BSTAR":0.0003813819,"MEAN_MOTION_DOT":4.461e-5,"MEAN_MOTION_DDOT":0},{"OBJECT_NAME":"STARLINK-34514","OBJECT_ID":"2025-129E","EPOCH":"2025-10-26T17:16:45.138432","MEAN_MOTION":14.98331892,"ECCENTRICITY":0.00032229,"INCLINATION":70.0022,"RA_OF_ASC_NODE":52.0974,"ARG_OF_PERICENTER":268.845,"MEAN_ANOMALY":91.234,"EPHEMERIS_TYPE":0,"CLASSIFICATION_TYPE":"U","NORAD_CAT_ID":64416,"ELEMENT_SET_NO":999,"REV_AT_EPOCH":2122,"BSTAR":0.00017879796,"MEAN_MOTION_DOT":2.041e-5,"MEAN_MOTION_DDOT":0},{"OBJECT_NAME":"STARLINK-34487","OBJECT_ID":"2025-129F","EPOCH":"2025-10-27T01:23:26.267424","MEAN_MOTION":14.98339358,"ECCENTRICITY":0.00032361,"INCLINATION":70.0015,"RA_OF_ASC_NODE":51.2666,"ARG_OF_PERICENTER":269.5626,"MEAN_ANOMALY":90.5162,"EPHEMERIS_TYPE":0,"CLASSIFICATION_TYPE":"U","NORAD_CAT_ID":64417,"ELEMENT_SET_NO":999,"REV_AT_EPOCH":2121,"BSTAR":0.00042733716,"MEAN_MOTION_DOT":5.011e-5,"MEAN_MOTION_DDOT":0},{"OBJECT_NAME":"STARLINK-34461","OBJECT_ID":"2025-129G","EPOCH":"2025-10-27T00:59:40.363296","MEAN_MOTION":14.98324658,"ECCENTRICITY":0.00033599,"INCLINATION":70.0024,"RA_OF_ASC_NODE":51.6111,"ARG_OF_PERICENTER":262.3522,"MEAN_ANOMALY":97.7256,"EPHEMERIS_TYPE":0,"CLASSIFICATION_TYPE":"U","NORAD_CAT_ID":64418,"ELEMENT_SET_NO":999,"REV_AT_EPOCH":2126,"BSTAR":0.00077038483,"MEAN_MOTION_DOT":9.11e-5,"MEAN_MOTION_DDOT":0},{"OBJECT_NAME":"STARLINK-34512","OBJECT_ID":"2025-129H","EPOCH":"2025-10-27T00:41:23.887680","MEAN_MOTION":14.98337444,"ECCENTRICITY":0.00032723,"INCLINATION":70.002,"RA_OF_ASC_NODE":51.5624,"ARG_OF_PERICENTER":270.8902,"MEAN_ANOMALY":89.1882,"EPHEMERIS_TYPE":0,"CLASSIFICATION_TYPE":"U","NORAD_CAT_ID":64419,"ELEMENT_SET_NO":999,"REV_AT_EPOCH":2120,"BSTAR":0.00032793914,"MEAN_MOTION_DOT":3.823e-5,"MEAN_MOTION_DDOT":0},{"OBJECT_NAME":"STARLINK-34503","OBJECT_ID":"2025-129J","EPOCH":"2025-10-27T00:47:38.750496","MEAN_MOTION":14.98335798,"ECCENTRICITY":0.00032096,"INCLINATION":70.0024,"RA_OF_ASC_NODE":51.5815,"ARG_OF_PERICENTER":267.4454,"MEAN_ANOMALY":92.6338,"EPHEMERIS_TYPE":0,"CLASSIFICATION_TYPE":"U","NORAD_CAT_ID":64420,"ELEMENT_SET_NO":999,"REV_AT_EPOCH":2120,"BSTAR":0.00041860405,"MEAN_MOTION_DOT":4.906e-5,"MEAN_MOTION_DDOT":0},{"OBJECT_NAME":"STARLINK-34498","OBJECT_ID":"2025-129K","EPOCH":"2025-10-26T16:28:42.340224","MEAN_MOTION":14.98342889,"ECCENTRICITY":0.00033611,"INCLINATION":70.0023,"RA_OF_ASC_NODE":52.3836,"ARG_OF_PERICENTER":270.5438,"MEAN_ANOMALY":89.5336,"EPHEMERIS_TYPE":0,"CLASSIFICATION_TYPE":"U","NORAD_CAT_ID":64421,"ELEMENT_SET_NO":999,"REV_AT_EPOCH":2121,"BSTAR":0.00056381391,"MEAN_MOTION_DOT":6.643e-5,"MEAN_MOTION_DDOT":0},{"OBJECT_NAME":"STARLINK-34434","OBJECT_ID":"2025-129L","EPOCH":"2025-10-27T00:59:24.303264","MEAN_MOTION":14.98344612,"ECCENTRICITY":0.0002602,"INCLINATION":70.0056,"RA_OF_ASC_NODE":51.6143,"ARG_OF_PERICENTER":272.3484,"MEAN_ANOMALY":87.7377,"EPHEMERIS_TYPE":0,"CLASSIFICATION_TYPE":"U","NORAD_CAT_ID":64422,"ELEMENT_SET_NO":999,"REV_AT_EPOCH":2126,"BSTAR":-0.00028322813,"MEAN_MOTION_DOT":-3.472e-5,"MEAN_MOTION_DDOT":0},{"OBJECT_NAME":"STARLINK-34467","OBJECT_ID":"2025-129M","EPOCH":"2025-10-26T17:46:47.216064","MEAN_MOTION":14.98367232,"ECCENTRICITY":0.00035417,"INCLINATION":70.0012,"RA_OF_ASC_NODE":52.1681,"ARG_OF_PERICENTER":271.682,"MEAN_ANOMALY":88.3933,"EPHEMERIS_TYPE":0,"CLASSIFICATION_TYPE":"U","NORAD_CAT_ID":64423,"ELEMENT_SET_NO":999,"REV_AT_EPOCH":2122,"BSTAR":0.0013599402,"MEAN_MOTION_DOT":0.00016187,"MEAN_MOTION_DDOT":0},{"OBJECT_NAME":"STARLINK-34468","OBJECT_ID":"2025-129N","EPOCH":"2025-10-27T01:05:40.849152","MEAN_MOTION":14.98333154,"ECCENTRICITY":0.00032975,"INCLINATION":70.0025,"RA_OF_ASC_NODE":51.6276,"ARG_OF_PERICENTER":271.3165,"MEAN_ANOMALY":88.7616,"EPHEMERIS_TYPE":0,"CLASSIFICATION_TYPE":"U","NORAD_CAT_ID":64424,"ELEMENT_SET_NO":999,"REV_AT_EPOCH":2126,"BSTAR":0.0002210829,"MEAN_MOTION_DOT":2.546e-5,"MEAN_MOTION_DDOT":0},{"OBJECT_NAME":"STARLINK-34452","OBJECT_ID":"2025-129P","EPOCH":"2025-10-27T01:29:41.234784","MEAN_MOTION":14.98337646,"ECCENTRICITY":0.00031341,"INCLINATION":70.0017,"RA_OF_ASC_NODE":51.2804,"ARG_OF_PERICENTER":270.7604,"MEAN_ANOMALY":89.3196,"EPHEMERIS_TYPE":0,"CLASSIFICATION_TYPE":"U","NORAD_CAT_ID":64425,"ELEMENT_SET_NO":999,"REV_AT_EPOCH":2127,"BSTAR":0.00040978765,"MEAN_MOTION_DOT":4.801e-5,"MEAN_MOTION_DDOT":0},{"OBJECT_NAME":"STARLINK-34432","OBJECT_ID":"2025-129Q","EPOCH":"2025-10-27T00:17:21.142464","MEAN_MOTION":14.98337718,"ECCENTRICITY":0.00030311,"INCLINATION":70.0021,"RA_OF_ASC_NODE":51.5027,"ARG_OF_PERICENTER":272.7846,"MEAN_ANOMALY":87.2966,"EPHEMERIS_TYPE":0,"CLASSIFICATION_TYPE":"U","NORAD_CAT_ID":64426,"ELEMENT_SET_NO":999,"REV_AT_EPOCH":2120,"BSTAR":0.00034082008,"MEAN_MOTION_DOT":3.977e-5,"MEAN_MOTION_DDOT":0},{"OBJECT_NAME":"STARLINK-34480","OBJECT_ID":"2025-129R","EPOCH":"2025-10-27T01:29:26.730816","MEAN_MOTION":14.98341567,"ECCENTRICITY":0.00031552,"INCLINATION":70.0021,"RA_OF_ASC_NODE":51.2767,"ARG_OF_PERICENTER":270.3871,"MEAN_ANOMALY":89.6926,"EPHEMERIS_TYPE":0,"CLASSIFICATION_TYPE":"U","NORAD_CAT_ID":64427,"ELEMENT_SET_NO":999,"REV_AT_EPOCH":2127,"BSTAR":0.00032229526,"MEAN_MOTION_DOT":3.756e-5,"MEAN_MOTION_DDOT":0},{"OBJECT_NAME":"STARLINK-34495","OBJECT_ID":"2025-129S","EPOCH":"2025-10-26T17:40:47.845632","MEAN_MOTION":14.98333153,"ECCENTRICITY":0.00033581,"INCLINATION":70.002,"RA_OF_ASC_NODE":52.1548,"ARG_OF_PERICENTER":273.5023,"MEAN_ANOMALY":86.5752,"EPHEMERIS_TYPE":0,"CLASSIFICATION_TYPE":"U","NORAD_CAT_ID":64428,"ELEMENT_SET_NO":999,"REV_AT_EPOCH":2122,"BSTAR":0.00048649889,"MEAN_MOTION_DOT":5.717e-5,"MEAN_MOTION_DDOT":0},{"OBJECT_NAME":"STARLINK-34501","OBJECT_ID":"2025-129T","EPOCH":"2025-10-27T00:47:24.593856","MEAN_MOTION":14.98336033,"ECCENTRICITY":0.00030185,"INCLINATION":70.0028,"RA_OF_ASC_NODE":51.5837,"ARG_OF_PERICENTER":268.0185,"MEAN_ANOMALY":92.0629,"EPHEMERIS_TYPE":0,"CLASSIFICATION_TYPE":"U","NORAD_CAT_ID":64429,"ELEMENT_SET_NO":999,"REV_AT_EPOCH":2126,"BSTAR":0.00031433454,"MEAN_MOTION_DOT":3.66e-5,"MEAN_MOTION_DDOT":0},{"OBJECT_NAME":"STARLINK-34441","OBJECT_ID":"2025-129U","EPOCH":"2025-10-27T00:23:21.796800","MEAN_MOTION":14.98339729,"ECCENTRICITY":0.00033188,"INCLINATION":70.0021,"RA_OF_ASC_NODE":51.5244,"ARG_OF_PERICENTER":272.3484,"MEAN_ANOMALY":87.7295,"EPHEMERIS_TYPE":0,"CLASSIFICATION_TYPE":"U","NORAD_CAT_ID":64430,"ELEMENT_SET_NO":999,"REV_AT_EPOCH":2126,"BSTAR":0.00033712079,"MEAN_MOTION_DOT":3.933e-5,"MEAN_MOTION_DDOT":0}]
