STARLINK-34422          
1 64415U 25129D   25300.02457359  .00004461  00000+0  38138-3 0  9994
2 64415  70.0027  51.5560 0003095 271.1340  88.9464 14.98337032 21209
STARLINK-34514          
1 64416U 25129E   25299.71996688  .00002041  00000+0  17880-3 0  9994
2 64416  70.0022  52.0974 0003222 268.8450  91.2340 14.98331892 21227
STARLINK-34487          
1 64417U 25129F   25300.05794291  .00005011  00000+0  42734-3 0  9997
2 64417  70.0015  51.2666 0003236 269.5626  90.5162 14.98339358 21215
STARLINK-34461          
1 64418U 25129G   25300.04143939  .00009110  00000+0  77038-3 0  9993
2 64418  70.0024  51.6111 0003359 262.3522  97.7256 14.98324658 21262
STARLINK-34512          
1 64419U 25129H   25300.02874870  .00003823  00000+0  32794-3 0  9992
2 64419  70.0020  51.5624 0003272 270.8902  89.1882 14.98337444 21208
STARLINK-34503          
1 64420U 25129J   25300.03308739  .00004906  00000+0  41860-3 0  9998
2 64420  70.0024  51.5815 0003209 267.4454  92.6338 14.98335798 21205
STARLINK-34498          
1 64421U 25129K   25299.68660116  .00006643  00000+0  56381-3 0  9991
2 64421  70.0023  52.3836 0003361 270.5438  89.5336 14.98342889 21216
STARLINK-34434          
1 64422U 25129L   25300.04125351 -.00003472  00000+0 -28323-3 0  9996
2 64422  70.0056  51.6143 0002602 272.3484  87.7377 14.98344612 21260
STARLINK-34467          
1 64423U 25129M   25299.74082426  .00016187  00000+0  13599-2 0  9999
2 64423  70.0012  52.1681 0003541 271.6820  88.3933 14.98367232 21229
STARLINK-34468          
1 64424U 25129N   25300.04561168  .00002546  00000+0  22108-3 0  9992
2 64424  70.0025  51.6276 0003297 271.3165  88.7616 14.98333154 21267
STARLINK-34452          
1 64425U 25129P   25300.06228281  .00004801  00000+0  40979-3 0  9993
2 64425  70.0017  51.2804 0003134 270.7604  89.3196 14.98337646 21274
STARLINK-34432          
1 64426U 25129Q   25300.01205026  .00003977  00000+0  34082-3 0  9992
2 64426  70.0021  51.5027 0003031 272.7846  87.2966 14.98337718 21201
STARLINK-34480          
1 64427U 25129R   25300.06211494  .00003756  00000+0  32230-3 0  9992
2 64427  70.0021  51.2767 0003155 270.3871  89.6926 14.98341567 21275
STARLINK-34495          
1 64428U 25129S   25299.73666488  .00005717  00000+0  48650-3 0  9993
2 64428  70.0020  52.1548 0003358 273.5023  86.5752 14.98333153 21221
STARLINK-34501          
1 64429U 25129T   25300.03292354  .00003660  00000+0  31433-3 0  9993
2 64429  70.0028  51.5837 0003018 268.0185  92.0629 14.98336033 21264
STARLINK-34441          
1 64430U 25129U   25300.01622450  .00003933  00000+0  33712-3 0  9992
2 64430  70.0021  51.5244 0003318 272.3484  87.7295 14.98339729 21269
